[{"OBJECT_NAME":"GAOFEN DUOMO (GFDM)","OBJECT_ID":"2020-042A","EPOCH":"2026-04-26T22:02:09.138912","MEAN_MOTION":14.7680578,"ECCENTRICITY":0.00096499,"INCLINATION":97.7783,"RA_OF_ASC_NODE":178.6612,"ARG_OF_PERICENTER":235.1224,"MEAN_ANOMALY":124.908,"EPHEMERIS_TYPE":0,"CLASSIFICATION_TYPE":"U","NORAD_CAT_ID":45856,"ELEMENT_SET_NO":999,"REV_AT_EPOCH":31344,"BSTAR":5.3708822e-5,"MEAN_MOTION_DOT":3.28e-6,"MEAN_MOTION_DDOT":0},{"OBJECT_NAME":"ZIYUAN 3-03 (ZY 3-03)","OBJECT_ID":"2020-051A","EPOCH":"2026-04-26T22:46:27.462144","MEAN_MOTION":15.21338119,"ECCENTRICITY":0.00069204,"INCLINATION":97.2862,"RA_OF_ASC_NODE":186.3204,"ARG_OF_PERICENTER":120.0841,"MEAN_ANOMALY":240.1082,"EPHEMERIS_TYPE":0,"CLASSIFICATION_TYPE":"U","NORAD_CAT_ID":45939,"ELEMENT_SET_NO":999,"REV_AT_EPOCH":31955,"BSTAR":0.00017172873,"MEAN_MOTION_DOT":3.78e-5,"MEAN_MOTION_DDOT":0},{"OBJECT_NAME":"NEMO-HD","OBJECT_ID":"2020-061F","EPOCH":"2026-04-26T22:22:29.044704","MEAN_MOTION":15.43546535,"ECCENTRICITY":0.00014856,"INCLINATION":97.1962,"RA_OF_ASC_NODE":179.4325,"ARG_OF_PERICENTER":132.0415,"MEAN_ANOMALY":228.096,"EPHEMERIS_TYPE":0,"CLASSIFICATION_TYPE":"U","NORAD_CAT_ID":46277,"ELEMENT_SET_NO":999,"REV_AT_EPOCH":31407,"BSTAR":0.00025125482,"MEAN_MOTION_DOT":0.00011196,"MEAN_MOTION_DDOT":0},{"OBJECT_NAME":"3CAT-5A","OBJECT_ID":"2020-061W","EPOCH":"2026-04-26T16:41:21.107616","MEAN_MOTION":15.4450116,"ECCENTRICITY":6.938e-5,"INCLINATION":97.2445,"RA_OF_ASC_NODE":179.7001,"ARG_OF_PERICENTER":25.9076,"MEAN_ANOMALY":334.2208,"EPHEMERIS_TYPE":0,"CLASSIFICATION_TYPE":"U","NORAD_CAT_ID":46292,"ELEMENT_SET_NO":999,"REV_AT_EPOCH":31307,"BSTAR":0.00042145583,"MEAN_MOTION_DOT":0.00019473,"MEAN_MOTION_DDOT":0},{"OBJECT_NAME":"3CAT-5B","OBJECT_ID":"2020-061X","EPOCH":"2026-04-26T17:20:11.575680","MEAN_MOTION":15.45743115,"ECCENTRICITY":7.68e-5,"INCLINATION":97.2444,"RA_OF_ASC_NODE":180.6119,"ARG_OF_PERICENTER":5.3737,"MEAN_ANOMALY":354.7521,"EPHEMERIS_TYPE":0,"CLASSIFICATION_TYPE":"U","NORAD_CAT_ID":46293,"ELEMENT_SET_NO":999,"REV_AT_EPOCH":31310,"BSTAR":0.00044236042,"MEAN_MOTION_DOT":0.00021331,"MEAN_MOTION_DDOT":0},{"OBJECT_NAME":"NAPA-1","OBJECT_ID":"2020-061BA","EPOCH":"2026-04-26T22:32:42.343008","MEAN_MOTION":15.61963218,"ECCENTRICITY":0.00018238,"INCLINATION":97.2507,"RA_OF_ASC_NODE":189.6738,"ARG_OF_PERICENTER":147.2326,"MEAN_ANOMALY":212.9046,"EPHEMERIS_TYPE":0,"CLASSIFICATION_TYPE":"U","NORAD_CAT_ID":46320,"ELEMENT_SET_NO":999,"REV_AT_EPOCH":31372,"BSTAR":0.00064365854,"MEAN_MOTION_DOT":0.00056227,"MEAN_MOTION_DDOT":0},{"OBJECT_NAME":"JILIN-1 GAOFEN 3B","OBJECT_ID":"2020-065A","EPOCH":"2026-04-26T11:05:46.239072","MEAN_MOTION":16.34350985,"ECCENTRICITY":0.00106436,"INCLINATION":97.1986,"RA_OF_ASC_NODE":177.393,"ARG_OF_PERICENTER":249.4308,"MEAN_ANOMALY":110.5848,"EPHEMERIS_TYPE":0,"CLASSIFICATION_TYPE":"U","NORAD_CAT_ID":46454,"ELEMENT_SET_NO":999,"REV_AT_EPOCH":31233,"BSTAR":0.00087139442,"MEAN_MOTION_DOT":0.05875672,"MEAN_MOTION_DDOT":2.402103e-6},{"OBJECT_NAME":"JILIN-1 GAOFEN 3E","OBJECT_ID":"2020-065D","EPOCH":"2026-04-26T22:19:56.379360","MEAN_MOTION":15.58238474,"ECCENTRICITY":0.00106234,"INCLINATION":97.2327,"RA_OF_ASC_NODE":168.5547,"ARG_OF_PERICENTER":358.9731,"MEAN_ANOMALY":1.1501,"EPHEMERIS_TYPE":0,"CLASSIFICATION_TYPE":"U","NORAD_CAT_ID":46457,"ELEMENT_SET_NO":999,"REV_AT_EPOCH":31176,"BSTAR":0.00066721092,"MEAN_MOTION_DOT":0.00050679,"MEAN_MOTION_DDOT":0},{"OBJECT_NAME":"JILIN-1 GAOFEN 3F","OBJECT_ID":"2020-065E","EPOCH":"2026-04-26T22:38:14.198496","MEAN_MOTION":15.56232454,"ECCENTRICITY":0.00118573,"INCLINATION":97.228,"RA_OF_ASC_NODE":166.1166,"ARG_OF_PERICENTER":345.6284,"MEAN_ANOMALY":14.4632,"EPHEMERIS_TYPE":0,"CLASSIFICATION_TYPE":"U","NORAD_CAT_ID":46458,"ELEMENT_SET_NO":999,"REV_AT_EPOCH":31172,"BSTAR":0.00066300233,"MEAN_MOTION_DOT":0.00046742,"MEAN_MOTION_DDOT":0},{"OBJECT_NAME":"JILIN-1 GAOFEN 3G","OBJECT_ID":"2020-065F","EPOCH":"2026-04-26T22:22:37.822944","MEAN_MOTION":15.63455473,"ECCENTRICITY":0.00106412,"INCLINATION":97.2354,"RA_OF_ASC_NODE":172.1909,"ARG_OF_PERICENTER":227.1646,"MEAN_ANOMALY":132.8719,"EPHEMERIS_TYPE":0,"CLASSIFICATION_TYPE":"U","NORAD_CAT_ID":46459,"ELEMENT_SET_NO":999,"REV_AT_EPOCH":31191,"BSTAR":0.00071056724,"MEAN_MOTION_DOT":0.00066039,"MEAN_MOTION_DDOT":0},{"OBJECT_NAME":"JILIN-1 GAOFEN 3H","OBJECT_ID":"2020-065G","EPOCH":"2026-04-26T22:38:22.546464","MEAN_MOTION":15.61252265,"ECCENTRICITY":0.00090018,"INCLINATION":97.2301,"RA_OF_ASC_NODE":168.7821,"ARG_OF_PERICENTER":163.6336,"MEAN_ANOMALY":196.5214,"EPHEMERIS_TYPE":0,"CLASSIFICATION_TYPE":"U","NORAD_CAT_ID":46460,"ELEMENT_SET_NO":999,"REV_AT_EPOCH":31187,"BSTAR":0.00069263376,"MEAN_MOTION_DOT":0.00059006,"MEAN_MOTION_DDOT":0},{"OBJECT_NAME":"JILIN-1 GAOFEN 3J","OBJECT_ID":"2020-065J","EPOCH":"2026-04-26T21:44:52.145376","MEAN_MOTION":15.99593706,"ECCENTRICITY":0.00063753,"INCLINATION":97.2255,"RA_OF_ASC_NODE":176.5457,"ARG_OF_PERICENTER":225.2415,"MEAN_ANOMALY":134.8346,"EPHEMERIS_TYPE":0,"CLASSIFICATION_TYPE":"U","NORAD_CAT_ID":46462,"ELEMENT_SET_NO":999,"REV_AT_EPOCH":31231,"BSTAR":0.0010614222,"MEAN_MOTION_DOT":0.00525426,"MEAN_MOTION_DDOT":0.0001220046},{"OBJECT_NAME":"HAIYANG-2C","OBJECT_ID":"2020-066A","EPOCH":"2026-04-26T21:48:37.868832","MEAN_MOTION":13.83374428,"ECCENTRICITY":0.00107888,"INCLINATION":65.9996,"RA_OF_ASC_NODE":342.9571,"ARG_OF_PERICENTER":243.0118,"MEAN_ANOMALY":116.9849,"EPHEMERIS_TYPE":0,"CLASSIFICATION_TYPE":"U","NORAD_CAT_ID":46469,"ELEMENT_SET_NO":999,"REV_AT_EPOCH":28240,"BSTAR":-1.5463049e-5,"MEAN_MOTION_DOT":-9.8e-7,"MEAN_MOTION_DDOT":0},{"OBJECT_NAME":"HJ-2A","OBJECT_ID":"2020-067A","EPOCH":"2026-04-25T20:23:46.079232","MEAN_MOTION":14.76541081,"ECCENTRICITY":0.00048981,"INCLINATION":97.8825,"RA_OF_ASC_NODE":195.4547,"ARG_OF_PERICENTER":79.4293,"MEAN_ANOMALY":280.7469,"EPHEMERIS_TYPE":0,"CLASSIFICATION_TYPE":"U","NORAD_CAT_ID":46478,"ELEMENT_SET_NO":999,"REV_AT_EPOCH":30053,"BSTAR":1.3716601e-5,"MEAN_MOTION_DOT":4.6e-7,"MEAN_MOTION_DDOT":0},{"OBJECT_NAME":"HJ-2B","OBJECT_ID":"2020-067B","EPOCH":"2026-04-26T21:39:22.677984","MEAN_MOTION":14.76552102,"ECCENTRICITY":0.00013689,"INCLINATION":97.8889,"RA_OF_ASC_NODE":197.466,"ARG_OF_PERICENTER":77.3175,"MEAN_ANOMALY":282.8189,"EPHEMERIS_TYPE":0,"CLASSIFICATION_TYPE":"U","NORAD_CAT_ID":46479,"ELEMENT_SET_NO":999,"REV_AT_EPOCH":30069,"BSTAR":5.016568e-5,"MEAN_MOTION_DOT":3.0e-6,"MEAN_MOTION_DDOT":0},{"OBJECT_NAME":"GONETS-M 17","OBJECT_ID":"2020-068A","EPOCH":"2026-04-26T22:22:20.077248","MEAN_MOTION":12.42870774,"ECCENTRICITY":0.00226726,"INCLINATION":82.5027,"RA_OF_ASC_NODE":19.3855,"ARG_OF_PERICENTER":144.5285,"MEAN_ANOMALY":215.7307,"EPHEMERIS_TYPE":0,"CLASSIFICATION_TYPE":"U","NORAD_CAT_ID":46486,"ELEMENT_SET_NO":999,"REV_AT_EPOCH":25279,"BSTAR":-0.00034195511,"MEAN_MOTION_DOT":-3.7e-7,"MEAN_MOTION_DDOT":0}]
