GAOFEN DUOMO (GFDM)     
1 45856U 20042A   26116.91816133  .00000328  00000+0  53709-4 0  9994
2 45856  97.7783 178.6612 0009649 235.1224 124.9080 14.76805780313444
ZIYUAN 3-03 (ZY 3-03)   
1 45939U 20051A   26116.94892896  .00003780  00000+0  17173-3 0  9998
2 45939  97.2862 186.3204 0006920 120.0841 240.1082 15.21338119319557
NEMO-HD                 
1 46277U 20061F   26116.93228061  .00011196  00000+0  25125-3 0  9997
2 46277  97.1962 179.4325 0001485 132.0415 228.0960 15.43546535314070
3CAT-5A                 
1 46292U 20061W   26116.69538319  .00019473  00000+0  42146-3 0  9995
2 46292  97.2445 179.7001 0000693  25.9076 334.2208 15.44501160313071
3CAT-5B                 
1 46293U 20061X   26116.72235620  .00021331  00000+0  44236-3 0  9997
2 46293  97.2444 180.6119 0000768   5.3737 354.7521 15.45743115313109
NAPA-1                  
1 46320U 20061BA  26116.93937897  .00056227  00000+0  64366-3 0  9994
2 46320  97.2507 189.6738 0001823 147.2326 212.9046 15.61963218313720
JILIN-1 GAOFEN 3B       
1 46454U 20065A   26116.46234073  .05875672  24021-5  87139-3 0  9996
2 46454  97.1986 177.3930 0010643 249.4308 110.5848 16.34350985312332
JILIN-1 GAOFEN 3E       
1 46457U 20065D   26116.93051365  .00050679  00000+0  66721-3 0  9998
2 46457  97.2327 168.5547 0010623 358.9731   1.1501 15.58238474311765
JILIN-1 GAOFEN 3F       
1 46458U 20065E   26116.94321989  .00046742  00000+0  66300-3 0  9991
2 46458  97.2280 166.1166 0011857 345.6284  14.4632 15.56232454311729
JILIN-1 GAOFEN 3G       
1 46459U 20065F   26116.93238221  .00066039  00000+0  71057-3 0  9993
2 46459  97.2354 172.1909 0010641 227.1646 132.8719 15.63455473311918
JILIN-1 GAOFEN 3H       
1 46460U 20065G   26116.94331651  .00059006  00000+0  69263-3 0  9999
2 46460  97.2301 168.7821 0009001 163.6336 196.5214 15.61252265311878
JILIN-1 GAOFEN 3J       
1 46462U 20065J   26116.90615909  .00525426  12200-3  10614-2 0  9996
2 46462  97.2255 176.5457 0006375 225.2415 134.8346 15.99593706312314
HAIYANG-2C              
1 46469U 20066A   26116.90877163 -.00000098  00000+0 -15463-4 0  9991
2 46469  65.9996 342.9571 0010788 243.0118 116.9849 13.83374428282406
HJ-2A                   
1 46478U 20067A   26115.84983888  .00000046  00000+0  13717-4 0  9997
2 46478  97.8825 195.4547 0004898  79.4293 280.7469 14.76541081300532
HJ-2B                   
1 46479U 20067B   26116.90234581  .00000300  00000+0  50166-4 0  9997
2 46479  97.8889 197.4660 0001368  77.3175 282.8189 14.76552102300691
GONETS-M 17             
1 46486U 20068A   26116.93217682 -.00000037  00000+0 -34196-3 0  9995
2 46486  82.5027  19.3855 0022672 144.5285 215.7307 12.42870774252795
